export const galileoOMMs = [
 {
  "OBJECT_NAME": "GALILEO 9",                
  "OBJECT_ID": "2015-045A",                
  "EPOCH": "2025-06-18T17:27:11.290432",   
  "MEAN_MOTION": 1.70473618,              
  "ECCENTRICITY": 0.0002587,              
  "INCLINATION": 55.0655,               
  "RA_OF_ASC_NODE": 231.6169,             
  "ARG_OF_PERICENTER": 4.7149,            
  "MEAN_ANOMALY": 355.3693,               
  "BSTAR": 0.00000,                      
  "MEAN_MOTION_DOT": 0.00000042,          
  "MEAN_MOTION_DDOT": 0.0,                
  "NORAD_CAT_ID": 40889
 },

 {
  "OBJECT_NAME": "GALILEO 8",          
  "OBJECT_ID": "2015-017B",                
  "EPOCH": "2025-06-14T20:28:19.108678",   
  "MEAN_MOTION": 1.70475675,              
  "ECCENTRICITY": 0.0001786,              
  "INCLINATION": 56.8953,                 
  "RA_OF_ASC_NODE": 351.5939,             
  "ARG_OF_PERICENTER": 239.7801,          
  "MEAN_ANOMALY": 120.2199,               
  "BSTAR": 0.00000,                      
  "MEAN_MOTION_DOT": -0.00000067,         
  "MEAN_MOTION_DDOT": 0.0,                
  "NORAD_CAT_ID": 40545
},

{
  "OBJECT_NAME": "GALILEO 7",
  "OBJECT_ID": "2015-017A",
  "EPOCH": "2025-06-15T04:25:52.727104",
  "MEAN_MOTION": 1.70475948,
  "ECCENTRICITY": 0.0001952,
  "INCLINATION": 56.8895,
  "RA_OF_ASC_NODE": 351.5678,
  "ARG_OF_PERICENTER": 270.2683,
  "MEAN_ANOMALY": 89.7270,
  "BSTAR": 0.00000,
  "MEAN_MOTION_DOT": -0.00000067,
  "MEAN_MOTION_DDOT": 0.0,
  "NORAD_CAT_ID": 40544
},

{
  "OBJECT_NAME": "GALILEO 6",
  "OBJECT_ID": "2014-050B",
  "EPOCH": "2025-06-18T09:31:06.312432",
  "MEAN_MOTION": 1.85520268,
  "ECCENTRICITY": 0.1632878,
  "INCLINATION": 49.2863,
  "RA_OF_ASC_NODE": 287.3180,
  "ARG_OF_PERICENTER": 166.2190,
  "MEAN_ANOMALY": 198.8727,
  "BSTAR": 0.00000,
  "MEAN_MOTION_DOT": -0.00000071,
  "MEAN_MOTION_DDOT": 0.0,
  "NORAD_CAT_ID": 40129
},

{
  "OBJECT_NAME": "GALILEO 5",
  "OBJECT_ID": "2014-050A",
  "EPOCH": "2025-06-18T03:21:10.356096",
  "MEAN_MOTION": 1.85519652,
  "ECCENTRICITY": 0.1632763,
  "INCLINATION": 49.2708,
  "RA_OF_ASC_NODE": 288.2467,
  "ARG_OF_PERICENTER": 165.4379,
  "MEAN_ANOMALY": 199.9309,
  "BSTAR": 0.00000,
  "MEAN_MOTION_DOT": -0.00000070,
  "MEAN_MOTION_DDOT": 0.0,
  "NORAD_CAT_ID": 40128
},

{
  "OBJECT_NAME": "GALILEO-FM3",
  "OBJECT_ID": "2012-055A",
  "EPOCH": "2025-06-18T09:05:05.425344",
  "MEAN_MOTION": 1.70473408,
  "ECCENTRICITY": 0.0004841,
  "INCLINATION": 55.5908,
  "RA_OF_ASC_NODE": 111.5121,
  "ARG_OF_PERICENTER": 294.3522,
  "MEAN_ANOMALY": 65.5683,
  "BSTAR": 0.00000,
  "MEAN_MOTION_DOT": 0.00000021,
  "MEAN_MOTION_DDOT": 0.0,
  "NORAD_CAT_ID": 38857
},

{
  "OBJECT_NAME": "GALILEO-FM2",
  "OBJECT_ID": "2011-060B",
  "EPOCH": "2025-06-19T03:14:58.951808",
  "MEAN_MOTION": 1.70475793,
  "ECCENTRICITY": 0.0003066,
  "INCLINATION": 57.0950,
  "RA_OF_ASC_NODE": 351.5768,
  "ARG_OF_PERICENTER": 11.2689,
  "MEAN_ANOMALY": 162.9742,
  "BSTAR": 0.00000,
  "MEAN_MOTION_DOT": -0.00000073,
  "MEAN_MOTION_DDOT": 0.0,
  "NORAD_CAT_ID": 37847
},

{
  "OBJECT_NAME": "GALILEO-PFM",
  "OBJECT_ID": "2011-060A",
  "EPOCH": "2025-06-18T08:07:57.295200",
  "MEAN_MOTION": 1.70475660,
  "ECCENTRICITY": 0.0003079,
  "INCLINATION": 57.0944,
  "RA_OF_ASC_NODE": 351.5980,
  "ARG_OF_PERICENTER": 50.2493,
  "MEAN_ANOMALY": 309.7964,
  "BSTAR": 0.00000,
  "MEAN_MOTION_DOT": -0.00000071,
  "MEAN_MOTION_DDOT": 0.0,
  "NORAD_CAT_ID": 37846
}

]