GSAT0101 (GALILEO-PFM)  
1 37846U 11060A   25170.33886250 -.00000071  00000+0  00000+0 0  9993
2 37846  57.0944 351.5980 0003079  50.2493 309.7964  1.70475660 84930
GSAT0102 (GALILEO-FM2)  
1 37847U 11060B   25171.13538897 -.00000073  00000+0  00000+0 0  9996
2 37847  57.0950 351.5768 0003066  11.2689 162.9742  1.70475793 85078
GSAT0103 (GALILEO-FM3)  
1 38857U 12055A   25170.37853435  .00000021  00000+0  00000+0 0  9998
2 38857  55.5908 111.5121 0004841 294.3522  65.5683  1.70473408 78823
GSAT0201 (GALILEO 5)    
1 40128U 14050A   25170.13969789 -.00000070  00000+0  00000+0 0  9998
2 40128  49.2708 288.2467 1632763 165.4379 199.9309  1.85519652 71580
GSAT0202 (GALILEO 6)    
1 40129U 14050B   25170.39660063 -.00000071  00000+0  00000+0 0  9991
2 40129  49.2863 287.3180 1632878 166.2190 198.8727  1.85520268 73750
GSAT0203 (GALILEO 7)    
1 40544U 15017A   25167.18462861 -.00000067  00000+0  00000+0 0  9990
2 40544  56.8895 351.5678 0001952 270.2683  89.7270  1.70475948 62961
GSAT0204 (GALILEO 8)    
1 40545U 15017B   25166.85299731 -.00000067  00000+0  00000+0 0  9998
2 40545  56.8953 351.5939 0001786 239.7801 120.2199  1.70475675 26007
GSAT0205 (GALILEO 9)    
1 40889U 15045A   25170.72721363  .00000042  00000+0  00000+0 0  9994
2 40889  55.0655 231.6169 0002587   4.7149 355.3693  1.70473618 60830
